start=new Date('2022-01-05T00:00:00.000Z').valueOf();
sats=[{"BSTAR":"0.00009326900000","TLE_LINE1":"1 46134U 20057T   22004.29279327  .00001108  00000-0  93269-4 0  9994","MEAN_ELEMENT_THEORY":"SGP4","DECAY_DATE":null,"COUNTRY_CODE":"US","LAUNCH_DATE":"2020-08-18","INCLINATION":"53.0531","OBJECT_NAME":"STARLINK-1638","ECCENTRICITY":"0.00019900","FILE":"3263295","MEAN_MOTION":"15.06403233","GP_ID":"193177512","CLASSIFICATION_TYPE":"U","NORAD_CAT_ID":"46134","EPHEMERIS_TYPE":"0","TIME_SYSTEM":"UTC","EPOCH":"2022-01-04T07:01:37.338528","OBJECT_ID":"2020-057T","MEAN_MOTION_DDOT":"0.0000000000000","REF_FRAME":"TEME","OBJECT_TYPE":"PAYLOAD","MEAN_MOTION_DOT":"0.00001108","APOAPSIS":"548.582","ELEMENT_SET_NO":"999","SITE":"AFETR","SEMIMAJOR_AXIS":"6925.339","CENTER_NAME":"EARTH","MEAN_ANOMALY":"300.2844","TLE_LINE2":"2 46134  53.0531 284.3920 0001990  59.8342 300.2844 15.06403233 76714","REV_AT_EPOCH":"7671","ARG_OF_PERICENTER":"59.8342","PERIAPSIS":"545.826","PERIOD":"95.592","RA_OF_ASC_NODE":"284.3920","RCS_SIZE":"LARGE"},{"FILE":"3264067","GP_ID":"193212616","CLASSIFICATION_TYPE":"U","MEAN_MOTION":"15.06401707","NORAD_CAT_ID":"46135","EPHEMERIS_TYPE":"0","EPOCH":"2022-01-04T21:42:42.953184","OBJECT_ID":"2020-057U","TIME_SYSTEM":"UTC","BSTAR":"0.00000511160000","TLE_LINE1":"1 46135U 20057U   22004.90466381 -.00000206  00000-0  51116-5 0  9996","MEAN_ELEMENT_THEORY":"SGP4","DECAY_DATE":null,"COUNTRY_CODE":"US","LAUNCH_DATE":"2020-08-18","OBJECT_NAME":"STARLINK-1639","INCLINATION":"53.0550","ECCENTRICITY":"0.00020740","SEMIMAJOR_AXIS":"6925.343","CENTER_NAME":"EARTH","TLE_LINE2":"2 46135  53.0550 281.6445 0002074  56.7339 303.3849 15.06401707 76807","MEAN_ANOMALY":"303.3849","ARG_OF_PERICENTER":"56.7339","REV_AT_EPOCH":"7680","PERIAPSIS":"545.772","RCS_SIZE":"LARGE","RA_OF_ASC_NODE":"281.6445","PERIOD":"95.592","REF_FRAME":"TEME","MEAN_MOTION_DDOT":"0.0000000000000","OBJECT_TYPE":"PAYLOAD","APOAPSIS":"548.645","MEAN_MOTION_DOT":"-0.00000206","ELEMENT_SET_NO":"999","SITE":"AFETR"},{"MEAN_MOTION_DOT":"0.00000151","APOAPSIS":"548.438","ELEMENT_SET_NO":"999","SITE":"AFETR","MEAN_MOTION_DDOT":"0.0000000000000","REF_FRAME":"TEME","OBJECT_TYPE":"PAYLOAD","REV_AT_EPOCH":"7637","ARG_OF_PERICENTER":"60.5558","PERIAPSIS":"545.989","RA_OF_ASC_NODE":"312.0250","PERIOD":"95.592","RCS_SIZE":"LARGE","SEMIMAJOR_AXIS":"6925.348","CENTER_NAME":"EARTH","MEAN_ANOMALY":"299.5607","TLE_LINE2":"2 46136  53.0550 312.0250 0001768  60.5558 299.5607 15.06400105 76377","DECAY_DATE":null,"COUNTRY_CODE":"US","LAUNCH_DATE":"2020-08-18","OBJECT_NAME":"STARLINK-1643","INCLINATION":"53.0550","ECCENTRICITY":"0.00017680","BSTAR":"0.00002903000000","TLE_LINE1":"1 46136U 20057V   22004.82080509  .00000151  00000-0  29030-4 0  9999","MEAN_ELEMENT_THEORY":"SGP4","TIME_SYSTEM":"UTC","EPOCH":"2022-01-04T19:41:57.559776","OBJECT_ID":"2020-057V","FILE":"3264067","GP_ID":"193212866","MEAN_MOTION":"15.06400105","CLASSIFICATION_TYPE":"U","EPHEMERIS_TYPE":"0","NORAD_CAT_ID":"46136"},{"RCS_SIZE":"LARGE","PERIOD":"95.592","RA_OF_ASC_NODE":"304.3092","PERIAPSIS":"545.880","ARG_OF_PERICENTER":"54.6657","REV_AT_EPOCH":"7643","TLE_LINE2":"2 46137  53.0539 304.3092 0001926  54.6657 305.4512 15.06399939 76434","MEAN_ANOMALY":"305.4512","CENTER_NAME":"EARTH","SEMIMAJOR_AXIS":"6925.349","SITE":"AFETR","ELEMENT_SET_NO":"999","APOAPSIS":"548.548","MEAN_MOTION_DOT":"0.00001276","OBJECT_TYPE":"PAYLOAD","REF_FRAME":"TEME","MEAN_MOTION_DDOT":"0.0000000000000","EPOCH":"2022-01-04T07:25:30.845856","OBJECT_ID":"2020-057W","TIME_SYSTEM":"UTC","EPHEMERIS_TYPE":"0","NORAD_CAT_ID":"46137","CLASSIFICATION_TYPE":"U","GP_ID":"193177762","MEAN_MOTION":"15.06399939","FILE":"3263295","ECCENTRICITY":"0.00019260","OBJECT_NAME":"STARLINK-1586","INCLINATION":"53.0539","LAUNCH_DATE":"2020-08-18","COUNTRY_CODE":"US","DECAY_DATE":null,"MEAN_ELEMENT_THEORY":"SGP4","TLE_LINE1":"1 46137U 20057W   22004.30938479  .00001276  00000-0  10453-3 0  9998","BSTAR":"0.00010453000000"},{"NORAD_CAT_ID":"46138","EPHEMERIS_TYPE":"0","CLASSIFICATION_TYPE":"U","GP_ID":"193178012","MEAN_MOTION":"15.06395187","FILE":"3263295","TIME_SYSTEM":"UTC","EPOCH":"2022-01-04T08:58:23.792736","OBJECT_ID":"2020-057X","MEAN_ELEMENT_THEORY":"SGP4","TLE_LINE1":"1 46138U 20057X   22004.37388649  .00000854  00000-0  76207-4 0  9995","BSTAR":"0.00007620700000","ECCENTRICITY":"0.00016600","OBJECT_NAME":"STARLINK-1590","INCLINATION":"53.0556","LAUNCH_DATE":"2020-08-18","COUNTRY_CODE":"US","DECAY_DATE":null,"MEAN_ANOMALY":"298.3475","TLE_LINE2":"2 46138  53.0556 324.0247 0001660  61.7682 298.3475 15.06395187 76166","CENTER_NAME":"EARTH","SEMIMAJOR_AXIS":"6925.363","PERIOD":"95.592","RA_OF_ASC_NODE":"324.0247","RCS_SIZE":"LARGE","PERIAPSIS":"546.079","REV_AT_EPOCH":"7616","ARG_OF_PERICENTER":"61.7682","OBJECT_TYPE":"PAYLOAD","MEAN_MOTION_DDOT":"0.0000000000000","REF_FRAME":"TEME","SITE":"AFETR","ELEMENT_SET_NO":"999","MEAN_MOTION_DOT":"0.00000854","APOAPSIS":"548.378"},{"TIME_SYSTEM":"UTC","OBJECT_ID":"2020-057Z","EPOCH":"2022-01-04T14:22:09.784704","FILE":"3264067","GP_ID":"193213116","CLASSIFICATION_TYPE":"U","MEAN_MOTION":"15.06394796","EPHEMERIS_TYPE":"0","NORAD_CAT_ID":"46140","DECAY_DATE":null,"COUNTRY_CODE":"US","LAUNCH_DATE":"2020-08-18","OBJECT_NAME":"STARLINK-1594","INCLINATION":"53.0541","ECCENTRICITY":"0.00018420","BSTAR":"0.00002149600000","TLE_LINE1":"1 46140U 20057Z   22004.59872436  .00000039  00000-0  21496-4 0  9999","MEAN_ELEMENT_THEORY":"SGP4","REV_AT_EPOCH":"7802","ARG_OF_PERICENTER":"51.7977","PERIAPSIS":"545.954","RA_OF_ASC_NODE":"283.0202","PERIOD":"95.592","RCS_SIZE":"LARGE","SEMIMAJOR_AXIS":"6925.365","CENTER_NAME":"EARTH","MEAN_ANOMALY":"308.3177","TLE_LINE2":"2 46140  53.0541 283.0202 0001842  51.7977 308.3177 15.06394796 78029","MEAN_MOTION_DOT":"0.00000039","APOAPSIS":"548.505","ELEMENT_SET_NO":"999","SITE":"AFETR","MEAN_MOTION_DDOT":"0.0000000000000","REF_FRAME":"TEME","OBJECT_TYPE":"PAYLOAD"},{"OBJECT_NAME":"STARLINK-1596","INCLINATION":"53.0531","ECCENTRICITY":"0.00018700","DECAY_DATE":null,"LAUNCH_DATE":"2020-08-18","COUNTRY_CODE":"US","TLE_LINE1":"1 46141U 20057AA  22004.90834296  .00000302  00000-0  39205-4 0  9997","MEAN_ELEMENT_THEORY":"SGP4","BSTAR":"0.00003920500000","TIME_SYSTEM":"UTC","OBJECT_ID":"2020-057AA","EPOCH":"2022-01-04T21:48:00.831744","GP_ID":"193213366","CLASSIFICATION_TYPE":"U","MEAN_MOTION":"15.06400718","NORAD_CAT_ID":"46141","EPHEMERIS_TYPE":"0","FILE":"3264067","SITE":"AFETR","MEAN_MOTION_DOT":"0.00000302","APOAPSIS":"548.506","ELEMENT_SET_NO":"999","OBJECT_TYPE":"PAYLOAD","MEAN_MOTION_DDOT":"0.0000000000000","REF_FRAME":"TEME","RA_OF_ASC_NODE":"281.6306","PERIOD":"95.592","RCS_SIZE":"LARGE","REV_AT_EPOCH":"7680","ARG_OF_PERICENTER":"64.0596","PERIAPSIS":"545.916","MEAN_ANOMALY":"296.0586","TLE_LINE2":"2 46141  53.0531 281.6306 0001870  64.0596 296.0586 15.06400718 76806","SEMIMAJOR_AXIS":"6925.346","CENTER_NAME":"EARTH"},{"INCLINATION":"53.0564","OBJECT_NAME":"STARLINK-1597","ECCENTRICITY":"0.00019410","DECAY_DATE":null,"COUNTRY_CODE":"US","LAUNCH_DATE":"2020-08-18","TLE_LINE1":"1 46142U 20057AB  22004.19695909 -.00000176  00000-0  70733-5 0  9997","MEAN_ELEMENT_THEORY":"SGP4","BSTAR":"0.00000707330000","OBJECT_ID":"2020-057AB","EPOCH":"2022-01-04T04:43:37.265376","TIME_SYSTEM":"UTC","CLASSIFICATION_TYPE":"U","GP_ID":"193177263","MEAN_MOTION":"15.06397384","NORAD_CAT_ID":"46142","EPHEMERIS_TYPE":"0","FILE":"3263295","SITE":"AFETR","APOAPSIS":"548.566","MEAN_MOTION_DOT":"-0.00000176","ELEMENT_SET_NO":"999","OBJECT_TYPE":"PAYLOAD","REF_FRAME":"TEME","MEAN_MOTION_DDOT":"0.0000000000000","RCS_SIZE":"LARGE","PERIOD":"95.592","RA_OF_ASC_NODE":"324.8320","ARG_OF_PERICENTER":"52.9664","REV_AT_EPOCH":"7613","PERIAPSIS":"545.877","TLE_LINE2":"2 46142  53.0564 324.8320 0001941  52.9664 307.1503 15.06397384 76133","MEAN_ANOMALY":"307.1503","SEMIMAJOR_AXIS":"6925.357","CENTER_NAME":"EARTH"},{"SEMIMAJOR_AXIS":"6742.643","CENTER_NAME":"EARTH","MEAN_ANOMALY":"79.1469","TLE_LINE2":"2 46143  53.0531 275.0815 0008666 280.8572  79.1469 15.68041207 76882","REV_AT_EPOCH":"7688","ARG_OF_PERICENTER":"280.8572","PERIAPSIS":"358.665","PERIOD":"91.834","RA_OF_ASC_NODE":"275.0815","RCS_SIZE":"LARGE","MEAN_MOTION_DDOT":"0.0000000000000","REF_FRAME":"TEME","OBJECT_TYPE":"PAYLOAD","MEAN_MOTION_DOT":"0.00092396","APOAPSIS":"370.352","ELEMENT_SET_NO":"999","SITE":"AFETR","FILE":"3264067","GP_ID":"193213869","CLASSIFICATION_TYPE":"U","MEAN_MOTION":"15.68041207","NORAD_CAT_ID":"46143","EPHEMERIS_TYPE":"0","TIME_SYSTEM":"UTC","EPOCH":"2022-01-04T17:14:25.140192","OBJECT_ID":"2020-057AC","BSTAR":"0.00081136000000","TLE_LINE1":"1 46143U 20057AC  22004.71834653  .00092396  00000-0  81136-3 0  9998","MEAN_ELEMENT_THEORY":"SGP4","DECAY_DATE":null,"COUNTRY_CODE":"US","LAUNCH_DATE":"2020-08-18","INCLINATION":"53.0531","OBJECT_NAME":"STARLINK-1599","ECCENTRICITY":"0.00086660"},{"OBJECT_TYPE":"PAYLOAD","MEAN_MOTION_DDOT":"0.0000000000000","REF_FRAME":"TEME","SITE":"AFETR","MEAN_MOTION_DOT":"0.00000649","APOAPSIS":"548.559","ELEMENT_SET_NO":"999","MEAN_ANOMALY":"299.3873","TLE_LINE2":"2 46144  53.0555 301.7076 0001966  60.7313 299.3873 15.06405139 64779","SEMIMAJOR_AXIS":"6925.333","CENTER_NAME":"EARTH","RA_OF_ASC_NODE":"301.7076","PERIOD":"95.592","RCS_SIZE":"LARGE","REV_AT_EPOCH":"6477","ARG_OF_PERICENTER":"60.7313","PERIAPSIS":"545.836","TLE_LINE1":"1 46144U 20057AD  22004.89175675  .00000649  00000-0  62444-4 0  9992","MEAN_ELEMENT_THEORY":"SGP4","BSTAR":"0.00006244400000","INCLINATION":"53.0555","OBJECT_NAME":"STARLINK-1606","ECCENTRICITY":"0.00019660","DECAY_DATE":null,"LAUNCH_DATE":"2020-08-18","COUNTRY_CODE":"US","GP_ID":"193212617","CLASSIFICATION_TYPE":"U","MEAN_MOTION":"15.06405139","EPHEMERIS_TYPE":"0","NORAD_CAT_ID":"46144","FILE":"3264067","TIME_SYSTEM":"UTC","EPOCH":"2022-01-04T21:24:07.783200","OBJECT_ID":"2020-057AD"}];
